start=new Date('2023-03-30T00:00:00.000Z').valueOf();
sats=[{"DECAY_DATE":null,"COUNTRY_CODE":"US","MEAN_ANOMALY":"92.1854","CENTER_NAME":"EARTH","OBJECT_ID":"2023-010AX","RA_OF_ASC_NODE":"233.9188","MEAN_ELEMENT_THEORY":"SGP4","FILE":"3874790","RCS_SIZE":"LARGE","ECCENTRICITY":"0.00030690","MEAN_MOTION_DDOT":"0.0000000000000","LAUNCH_DATE":"2023-01-19","APOAPSIS":"361.180","OBJECT_TYPE":"PAYLOAD","ELEMENT_SET_NO":"999","REF_FRAME":"TEME","ARG_OF_PERICENTER":"267.8991","SEMIMAJOR_AXIS":"6737.247","REV_AT_EPOCH":"1258","OBJECT_NAME":"STARLINK-5305","PERIOD":"91.724","TLE_LINE1":"1 55314U 23010AX  23088.88220586  .00003768  00000-0  33088-4 0  9994","SITE":"AFWTR","MEAN_MOTION":"15.69925577","EPHEMERIS_TYPE":"0","INCLINATION":"70.0000","PERIAPSIS":"357.044","GP_ID":"229140593","TLE_LINE2":"2 55314  70.0000 233.9188 0003069 267.8991  92.1854 15.69925577 12582","BSTAR":"0.00003308800000","MEAN_MOTION_DOT":"0.00003768","NORAD_CAT_ID":"55314","EPOCH":"2023-03-29T21:10:22.586304","TIME_SYSTEM":"UTC","CLASSIFICATION_TYPE":"U"},{"ARG_OF_PERICENTER":"277.0820","REF_FRAME":"TEME","SEMIMAJOR_AXIS":"6737.267","OBJECT_NAME":"STARLINK-4623","REV_AT_EPOCH":"1168","MEAN_MOTION_DDOT":"0.0000000000000","LAUNCH_DATE":"2023-01-19","APOAPSIS":"361.311","ELEMENT_SET_NO":"999","OBJECT_TYPE":"PAYLOAD","OBJECT_ID":"2023-010AY","RA_OF_ASC_NODE":"234.1080","MEAN_ELEMENT_THEORY":"SGP4","RCS_SIZE":"LARGE","FILE":"3874790","ECCENTRICITY":"0.00032350","DECAY_DATE":null,"COUNTRY_CODE":"US","MEAN_ANOMALY":"83.0007","CENTER_NAME":"EARTH","CLASSIFICATION_TYPE":"U","TLE_LINE2":"2 55315  69.9999 234.1080 0003235 277.0820  83.0007 15.69918659 11682","GP_ID":"229141342","BSTAR":"-0.00000463130000","MEAN_MOTION_DOT":"-0.00000769","NORAD_CAT_ID":"55315","TIME_SYSTEM":"UTC","EPOCH":"2023-03-29T19:41:49.147872","SITE":"AFWTR","EPHEMERIS_TYPE":"0","MEAN_MOTION":"15.69918659","PERIAPSIS":"356.952","INCLINATION":"69.9999","PERIOD":"91.724","TLE_LINE1":"1 55315U 23010AY  23088.82070773 -.00000769  00000-0 -46313-5 0  9996"},{"PERIOD":"91.724","TLE_LINE1":"1 55316U 23010AZ  23088.78476368  .00001411  00000-0  13494-4 0  9998","SITE":"AFWTR","PERIAPSIS":"356.924","INCLINATION":"69.9991","EPHEMERIS_TYPE":"0","MEAN_MOTION":"15.69933190","NORAD_CAT_ID":"55316","TLE_LINE2":"2 55316  69.9991 234.3941 0003215 266.8511  93.2317 15.69933190 12566","MEAN_MOTION_DOT":"0.00001411","GP_ID":"229142094","BSTAR":"0.00001349400000","TIME_SYSTEM":"UTC","EPOCH":"2023-03-29T18:50:03.581952","CLASSIFICATION_TYPE":"U","COUNTRY_CODE":"US","DECAY_DATE":null,"CENTER_NAME":"EARTH","MEAN_ANOMALY":"93.2317","RCS_SIZE":"LARGE","FILE":"3874790","OBJECT_ID":"2023-010AZ","RA_OF_ASC_NODE":"234.3941","MEAN_ELEMENT_THEORY":"SGP4","ECCENTRICITY":"0.00032150","MEAN_MOTION_DDOT":"0.0000000000000","ELEMENT_SET_NO":"999","OBJECT_TYPE":"PAYLOAD","LAUNCH_DATE":"2023-01-19","APOAPSIS":"361.256","SEMIMAJOR_AXIS":"6737.225","ARG_OF_PERICENTER":"266.8511","REF_FRAME":"TEME","OBJECT_NAME":"STARLINK-5257","REV_AT_EPOCH":"1256"},{"ECCENTRICITY":"0.00036150","RCS_SIZE":"LARGE","FILE":"3874790","RA_OF_ASC_NODE":"233.9214","OBJECT_ID":"2023-010BA","MEAN_ELEMENT_THEORY":"SGP4","CENTER_NAME":"EARTH","MEAN_ANOMALY":"88.8515","COUNTRY_CODE":"US","DECAY_DATE":null,"REV_AT_EPOCH":"1258","OBJECT_NAME":"STARLINK-5265","SEMIMAJOR_AXIS":"6737.257","REF_FRAME":"TEME","ARG_OF_PERICENTER":"271.2267","ELEMENT_SET_NO":"999","OBJECT_TYPE":"PAYLOAD","APOAPSIS":"361.558","LAUNCH_DATE":"2023-01-19","MEAN_MOTION_DDOT":"0.0000000000000","PERIAPSIS":"356.687","INCLINATION":"69.9981","EPHEMERIS_TYPE":"0","MEAN_MOTION":"15.69921950","SITE":"AFWTR","TLE_LINE1":"1 55317U 23010BA  23088.88231228 -.00000114  00000-0  82471-6 0  9997","PERIOD":"91.724","CLASSIFICATION_TYPE":"U","TIME_SYSTEM":"UTC","EPOCH":"2023-03-29T21:10:31.780992","NORAD_CAT_ID":"55317","TLE_LINE2":"2 55317  69.9981 233.9214 0003615 271.2267  88.8515 15.69921950 12589","GP_ID":"229141840","BSTAR":"0.00000082471000","MEAN_MOTION_DOT":"-0.00000114"},{"ELEMENT_SET_NO":"999","OBJECT_TYPE":"PAYLOAD","APOAPSIS":"361.519","LAUNCH_DATE":"2023-01-19","MEAN_MOTION_DDOT":"0.0000000000000","OBJECT_NAME":"STARLINK-5180","REV_AT_EPOCH":"1258","SEMIMAJOR_AXIS":"6737.213","ARG_OF_PERICENTER":"262.7485","REF_FRAME":"TEME","CENTER_NAME":"EARTH","MEAN_ANOMALY":"97.3299","COUNTRY_CODE":"US","DECAY_DATE":null,"ECCENTRICITY":"0.00036240","RCS_SIZE":"LARGE","FILE":"3874790","OBJECT_ID":"2023-010BB","RA_OF_ASC_NODE":"233.9204","MEAN_ELEMENT_THEORY":"SGP4","TIME_SYSTEM":"UTC","EPOCH":"2023-03-29T21:10:13.116864","NORAD_CAT_ID":"55318","TLE_LINE2":"2 55318  70.0004 233.9204 0003624 262.7485  97.3299 15.69937592 12588","MEAN_MOTION_DOT":"0.00006632","GP_ID":"229141093","BSTAR":"0.00005684900000","CLASSIFICATION_TYPE":"U","TLE_LINE1":"1 55318U 23010BB  23088.88209626  .00006632  00000-0  56849-4 0  9993","PERIOD":"91.723","PERIAPSIS":"356.636","INCLINATION":"70.0004","EPHEMERIS_TYPE":"0","MEAN_MOTION":"15.69937592","SITE":"AFWTR"},{"COUNTRY_CODE":"US","DECAY_DATE":null,"CENTER_NAME":"EARTH","MEAN_ANOMALY":"93.1151","FILE":"3874790","RCS_SIZE":"LARGE","OBJECT_ID":"2023-010BC","RA_OF_ASC_NODE":"233.9213","MEAN_ELEMENT_THEORY":"SGP4","ECCENTRICITY":"0.00036010","MEAN_MOTION_DDOT":"0.0000000000000","OBJECT_TYPE":"PAYLOAD","ELEMENT_SET_NO":"999","LAUNCH_DATE":"2023-01-19","APOAPSIS":"361.551","SEMIMAJOR_AXIS":"6737.260","REF_FRAME":"TEME","ARG_OF_PERICENTER":"266.9632","REV_AT_EPOCH":"1258","OBJECT_NAME":"STARLINK-5196","PERIOD":"91.724","TLE_LINE1":"1 55319U 23010BC  23088.88199454  .00003897  00000-0  34167-4 0  9990","SITE":"AFWTR","INCLINATION":"70.0007","PERIAPSIS":"356.699","MEAN_MOTION":"15.69920957","EPHEMERIS_TYPE":"0","NORAD_CAT_ID":"55319","TLE_LINE2":"2 55319  70.0007 233.9213 0003601 266.9632  93.1151 15.69920957 12585","GP_ID":"229140843","MEAN_MOTION_DOT":"0.00003897","BSTAR":"0.00003416700000","EPOCH":"2023-03-29T21:10:04.328256","TIME_SYSTEM":"UTC","CLASSIFICATION_TYPE":"U"},{"REF_FRAME":"TEME","ARG_OF_PERICENTER":"262.0003","SEMIMAJOR_AXIS":"6835.311","REV_AT_EPOCH":"1027","OBJECT_NAME":"STARLINK-5492","MEAN_MOTION_DDOT":"0.0000000000000","APOAPSIS":"457.958","LAUNCH_DATE":"2023-01-26","ELEMENT_SET_NO":"999","OBJECT_TYPE":"PAYLOAD","OBJECT_ID":"2023-013A","RA_OF_ASC_NODE":"28.8419","MEAN_ELEMENT_THEORY":"SGP4","RCS_SIZE":"LARGE","FILE":"3874538","ECCENTRICITY":"0.00011450","DECAY_DATE":null,"COUNTRY_CODE":"US","MEAN_ANOMALY":"302.6284","CENTER_NAME":"EARTH","CLASSIFICATION_TYPE":"U","GP_ID":"229110206","TLE_LINE2":"2 55331  43.0009  28.8419 0001145 262.0003 302.6284 15.36262248 10275","MEAN_MOTION_DOT":"-0.00936754","BSTAR":"-0.02833100000000","NORAD_CAT_ID":"55331","TIME_SYSTEM":"UTC","EPOCH":"2023-03-29T22:00:00.999936","SITE":"AFETR","EPHEMERIS_TYPE":"0","MEAN_MOTION":"15.36262248","PERIAPSIS":"456.393","INCLINATION":"43.0009","PERIOD":"93.734","TLE_LINE1":"1 55331U 23013A   23088.91667824 -.00936754  00000-0 -28331-1 0  9994"},{"MEAN_MOTION_DDOT":"0.0000000000000","APOAPSIS":"356.726","LAUNCH_DATE":"2023-01-26","ELEMENT_SET_NO":"999","OBJECT_TYPE":"PAYLOAD","ARG_OF_PERICENTER":"271.7480","REF_FRAME":"TEME","SEMIMAJOR_AXIS":"6733.509","OBJECT_NAME":"STARLINK-5491","REV_AT_EPOCH":"988","DECAY_DATE":null,"COUNTRY_CODE":"US","MEAN_ANOMALY":"88.3158","CENTER_NAME":"EARTH","OBJECT_ID":"2023-013B","RA_OF_ASC_NODE":"25.4483","MEAN_ELEMENT_THEORY":"SGP4","RCS_SIZE":"LARGE","FILE":"3874790","ECCENTRICITY":"0.00020070","TLE_LINE2":"2 55332  43.0016  25.4483 0002007 271.7480  88.3158 15.71232926  9884","MEAN_MOTION_DOT":"-0.00039237","GP_ID":"229141596","BSTAR":"-0.00029870000000","NORAD_CAT_ID":"55332","TIME_SYSTEM":"UTC","EPOCH":"2023-03-29T20:57:08.948736","CLASSIFICATION_TYPE":"U","PERIOD":"91.648","TLE_LINE1":"1 55332U 23013B   23088.87302024 -.00039237  00000-0 -29870-3 0  9999","SITE":"AFETR","EPHEMERIS_TYPE":"0","MEAN_MOTION":"15.71232926","PERIAPSIS":"354.023","INCLINATION":"43.0016"},{"CLASSIFICATION_TYPE":"U","NORAD_CAT_ID":"55333","TLE_LINE2":"2 55333  43.0005  28.8017 0001150 259.7172 321.4157 15.36873565 10271","MEAN_MOTION_DOT":"-0.00939991","GP_ID":"229110225","BSTAR":"-0.02787800000000","TIME_SYSTEM":"UTC","EPOCH":"2023-03-29T22:00:00.999936","SITE":"AFETR","PERIAPSIS":"454.577","INCLINATION":"43.0005","EPHEMERIS_TYPE":"0","MEAN_MOTION":"15.36873565","PERIOD":"93.697","TLE_LINE1":"1 55333U 23013C   23088.91667824 -.00939991  00000-0 -27878-1 0  9997","SEMIMAJOR_AXIS":"6833.498","ARG_OF_PERICENTER":"259.7172","REF_FRAME":"TEME","OBJECT_NAME":"STARLINK-5493","REV_AT_EPOCH":"1027","MEAN_MOTION_DDOT":"0.0000000000000","ELEMENT_SET_NO":"999","OBJECT_TYPE":"PAYLOAD","APOAPSIS":"456.149","LAUNCH_DATE":"2023-01-26","RCS_SIZE":"LARGE","FILE":"3874539","RA_OF_ASC_NODE":"28.8017","OBJECT_ID":"2023-013C","MEAN_ELEMENT_THEORY":"SGP4","ECCENTRICITY":"0.00011500","COUNTRY_CODE":"US","DECAY_DATE":null,"CENTER_NAME":"EARTH","MEAN_ANOMALY":"321.4157"},{"TIME_SYSTEM":"UTC","EPOCH":"2023-03-29T22:00:00.999936","GP_ID":"229140595","TLE_LINE2":"2 55334  43.0004  27.8232 0001351 256.6392   4.3556 15.47404302  1307","BSTAR":"-0.01462900000000","MEAN_MOTION_DOT":"-0.00710863","NORAD_CAT_ID":"55334","CLASSIFICATION_TYPE":"U","TLE_LINE1":"1 55334U 23013D   23088.91667824 -.00710863  00000-0 -14629-1 0  9993","PERIOD":"93.059","EPHEMERIS_TYPE":"0","MEAN_MOTION":"15.47404302","PERIAPSIS":"423.406","INCLINATION":"43.0004","SITE":"AFETR","APOAPSIS":"425.244","LAUNCH_DATE":"2023-01-26","ELEMENT_SET_NO":"999","OBJECT_TYPE":"PAYLOAD","MEAN_MOTION_DDOT":"0.0000000000000","OBJECT_NAME":"STARLINK-5652","REV_AT_EPOCH":"130","ARG_OF_PERICENTER":"256.6392","REF_FRAME":"TEME","SEMIMAJOR_AXIS":"6802.460","MEAN_ANOMALY":"4.3556","CENTER_NAME":"EARTH","DECAY_DATE":null,"COUNTRY_CODE":"US","ECCENTRICITY":"0.00013510","RA_OF_ASC_NODE":"27.8232","MEAN_ELEMENT_THEORY":"SGP4","OBJECT_ID":"2023-013D","RCS_SIZE":"LARGE","FILE":"3874790"}];
